IRIDIUM 63              
1 25286U 98021B   25336.80695483  .00000528  00000+0  17266-3 0  9994
2 25286  86.3993  11.3828 0002408  93.0465 267.1008 14.36723409448051
IRIDIUM 69              
1 25319U 98026A   25336.64752727  .00000747  00000+0  22534-3 0  9990
2 25319  86.3988  24.2050 0003139 143.6796 216.4617 14.41200107447326
IRIDIUM 71              
1 25320U 98026B   25336.63502841  .00000399  00000+0  11735-3 0  9995
2 25320  86.3986  18.8840 0000795 166.2428 193.8794 14.41308376447859
IRIDIUM 73              
1 25344U 98032C   25336.51039731  .00000913  00000+0  22117-3 0  9996
2 25344  86.4402 335.3376 0002751 102.1540 257.9974 14.51966787454989
IRIDIUM 82              
1 25467U 98051A   25336.61549281  .00048710  00000+0  93632-3 0  9997
2 25467  86.3633  26.2015 0063778  14.6108 345.6972 15.45472954449832
